CCSDS_OMM_VERS = 2.0
CREATION_DATE  = 
ORIGINATOR     = 

OBJECT_NAME    = SL-3 R/B
OBJECT_ID      = 1982-079B
CENTER_NAME    = EARTH
REF_FRAME      = TEME
TIME_SYSTEM    = UTC
MEAN_ELEMENT_THEORY = SGP/SGP4

EPOCH          = 2026-03-15T05:52:20.017632
MEAN_MOTION    = 15.24890629
ECCENTRICITY   = .00252703
INCLINATION    = 81.1484
RA_OF_ASC_NODE = 186.5187
ARG_OF_PERICENTER = 146.3391
MEAN_ANOMALY   = 213.9454

EPHEMERIS_TYPE = 0
CLASSIFICATION_TYPE = U
NORAD_CAT_ID   = 13403
ELEMENT_SET_NO = 999
REV_AT_EPOCH   = 37854
BSTAR          = .31833559E-3
MEAN_MOTION_DOT = .8015E-4
MEAN_MOTION_DDOT = 0

CCSDS_OMM_VERS = 2.0
CREATION_DATE  = 
ORIGINATOR     = 

OBJECT_NAME    = SL-14 R/B
OBJECT_ID      = 1982-092B
CENTER_NAME    = EARTH
REF_FRAME      = TEME
TIME_SYSTEM    = UTC
MEAN_ELEMENT_THEORY = SGP/SGP4

EPOCH          = 2026-03-15T05:30:31.227840
MEAN_MOTION    = 14.86671958
ECCENTRICITY   = .00188051
INCLINATION    = 82.5683
RA_OF_ASC_NODE = 136.2180
ARG_OF_PERICENTER = 283.8375
MEAN_ANOMALY   = 135.0531

EPHEMERIS_TYPE = 0
CLASSIFICATION_TYPE = U
NORAD_CAT_ID   = 13553
ELEMENT_SET_NO = 999
REV_AT_EPOCH   = 32975
BSTAR          = .47586838E-4
MEAN_MOTION_DOT = .448E-5
MEAN_MOTION_DDOT = 0

CCSDS_OMM_VERS = 2.0
CREATION_DATE  = 
ORIGINATOR     = 

OBJECT_NAME    = SL-3 R/B
OBJECT_ID      = 1983-010B
CENTER_NAME    = EARTH
REF_FRAME      = TEME
TIME_SYSTEM    = UTC
MEAN_ELEMENT_THEORY = SGP/SGP4

EPOCH          = 2026-03-15T06:15:35.309376
MEAN_MOTION    = 15.46573970
ECCENTRICITY   = .00174867
INCLINATION    = 81.1063
RA_OF_ASC_NODE = 355.4167
ARG_OF_PERICENTER = 32.9646
MEAN_ANOMALY   = 327.2685

EPHEMERIS_TYPE = 0
CLASSIFICATION_TYPE = U
NORAD_CAT_ID   = 13819
ELEMENT_SET_NO = 999
REV_AT_EPOCH   = 35880
BSTAR          = .39146772E-3
MEAN_MOTION_DOT = .19638E-3
MEAN_MOTION_DDOT = 0

CCSDS_OMM_VERS = 2.0
CREATION_DATE  = 
ORIGINATOR     = 

OBJECT_NAME    = SL-3 R/B
OBJECT_ID      = 1983-075B
CENTER_NAME    = EARTH
REF_FRAME      = TEME
TIME_SYSTEM    = UTC
MEAN_ELEMENT_THEORY = SGP/SGP4

EPOCH          = 2026-03-15T06:44:05.381376
MEAN_MOTION    = 15.38564352
ECCENTRICITY   = .00206628
INCLINATION    = 97.6139
RA_OF_ASC_NODE = 79.0701
ARG_OF_PERICENTER = 204.7295
MEAN_ANOMALY   = 155.2961

EPHEMERIS_TYPE = 0
CLASSIFICATION_TYPE = U
NORAD_CAT_ID   = 14208
ELEMENT_SET_NO = 999
REV_AT_EPOCH   = 33101
BSTAR          = .33652435E-3
MEAN_MOTION_DOT = .12822E-3
MEAN_MOTION_DDOT = 0

CCSDS_OMM_VERS = 2.0
CREATION_DATE  = 
ORIGINATOR     = 

OBJECT_NAME    = COSMOS 1536
OBJECT_ID      = 1984-013A
CENTER_NAME    = EARTH
REF_FRAME      = TEME
TIME_SYSTEM    = UTC
MEAN_ELEMENT_THEORY = SGP/SGP4

EPOCH          = 2026-03-15T07:14:01.893984
MEAN_MOTION    = 15.23904956
ECCENTRICITY   = .0012413
INCLINATION    = 82.5421
RA_OF_ASC_NODE = 102.2708
ARG_OF_PERICENTER = 260.9718
MEAN_ANOMALY   = 99.0115

EPHEMERIS_TYPE = 0
CLASSIFICATION_TYPE = U
NORAD_CAT_ID   = 14699
ELEMENT_SET_NO = 999
REV_AT_EPOCH   = 27347
BSTAR          = .28852342E-3
MEAN_MOTION_DOT = .7013E-4
MEAN_MOTION_DDOT = 0

CCSDS_OMM_VERS = 2.0
CREATION_DATE  = 
ORIGINATOR     = 

OBJECT_NAME    = SL-14 R/B
OBJECT_ID      = 1984-027B
CENTER_NAME    = EARTH
REF_FRAME      = TEME
TIME_SYSTEM    = UTC
MEAN_ELEMENT_THEORY = SGP/SGP4

EPOCH          = 2026-03-14T22:41:26.897280
MEAN_MOTION    = 14.85982789
ECCENTRICITY   = .00169687
INCLINATION    = 82.5394
RA_OF_ASC_NODE = 240.0823
ARG_OF_PERICENTER = 319.7746
MEAN_ANOMALY   = 40.2214

EPHEMERIS_TYPE = 0
CLASSIFICATION_TYPE = U
NORAD_CAT_ID   = 14820
ELEMENT_SET_NO = 999
REV_AT_EPOCH   = 24841
BSTAR          = .66255509E-4
MEAN_MOTION_DOT = .604E-5
MEAN_MOTION_DDOT = 0

CCSDS_OMM_VERS = 2.0
CREATION_DATE  = 
ORIGINATOR     = 

OBJECT_NAME    = SL-8 R/B
OBJECT_ID      = 1985-006B
CENTER_NAME    = EARTH
REF_FRAME      = TEME
TIME_SYSTEM    = UTC
MEAN_ELEMENT_THEORY = SGP/SGP4

EPOCH          = 2026-03-14T22:57:41.066784
MEAN_MOTION    = 14.37787427
ECCENTRICITY   = .00182074
INCLINATION    = 74.0433
RA_OF_ASC_NODE = 251.4554
ARG_OF_PERICENTER = 167.8816
MEAN_ANOMALY   = 308.6977

EPHEMERIS_TYPE = 0
CLASSIFICATION_TYPE = U
NORAD_CAT_ID   = 15483
ELEMENT_SET_NO = 999
REV_AT_EPOCH   = 15478
BSTAR          = .13784486E-3
MEAN_MOTION_DOT = .39E-5
MEAN_MOTION_DDOT = 0

CCSDS_OMM_VERS = 2.0
CREATION_DATE  = 
ORIGINATOR     = 

OBJECT_NAME    = SL-12 R/B(2)
OBJECT_ID      = 1985-042D
CENTER_NAME    = EARTH
REF_FRAME      = TEME
TIME_SYSTEM    = UTC
MEAN_ELEMENT_THEORY = SGP/SGP4

EPOCH          = 2026-03-15T05:48:11.157120
MEAN_MOTION    = 14.21984054
ECCENTRICITY   = .0033048
INCLINATION    = 71.1063
RA_OF_ASC_NODE = 75.9975
ARG_OF_PERICENTER = 118.9917
MEAN_ANOMALY   = 252.5337

EPHEMERIS_TYPE = 0
CLASSIFICATION_TYPE = U
NORAD_CAT_ID   = 15772
ELEMENT_SET_NO = 999
REV_AT_EPOCH   = 11518
BSTAR          = .82655676E-4
MEAN_MOTION_DOT = .136E-5
MEAN_MOTION_DDOT = 0

CCSDS_OMM_VERS = 2.0
CREATION_DATE  = 
ORIGINATOR     = 

OBJECT_NAME    = SL-14 R/B
OBJECT_ID      = 1985-069B
CENTER_NAME    = EARTH
REF_FRAME      = TEME
TIME_SYSTEM    = UTC
MEAN_ELEMENT_THEORY = SGP/SGP4

EPOCH          = 2026-03-15T06:21:55.290528
MEAN_MOTION    = 14.86440100
ECCENTRICITY   = .00189815
INCLINATION    = 82.5293
RA_OF_ASC_NODE = 19.6910
ARG_OF_PERICENTER = 169.1792
MEAN_ANOMALY   = 190.9837

EPHEMERIS_TYPE = 0
CLASSIFICATION_TYPE = U
NORAD_CAT_ID   = 15945
ELEMENT_SET_NO = 999
REV_AT_EPOCH   = 17366
BSTAR          = .6050019E-4
MEAN_MOTION_DOT = .56E-5
MEAN_MOTION_DDOT = 0

CCSDS_OMM_VERS = 2.0
CREATION_DATE  = 
ORIGINATOR     = 

OBJECT_NAME    = SL-16 R/B
OBJECT_ID      = 1985-097B
CENTER_NAME    = EARTH
REF_FRAME      = TEME
TIME_SYSTEM    = UTC
MEAN_ELEMENT_THEORY = SGP/SGP4

EPOCH          = 2026-03-15T06:48:30.668256
MEAN_MOTION    = 14.16598249
ECCENTRICITY   = .00097483
INCLINATION    = 71.0017
RA_OF_ASC_NODE = 128.7778
ARG_OF_PERICENTER = 252.8099
MEAN_ANOMALY   = 174.0366

EPHEMERIS_TYPE = 0
CLASSIFICATION_TYPE = U
NORAD_CAT_ID   = 16182
ELEMENT_SET_NO = 999
REV_AT_EPOCH   = 8802
BSTAR          = .44628062E-4
MEAN_MOTION_DOT = .41E-6
MEAN_MOTION_DDOT = 0

CCSDS_OMM_VERS = 2.0
CREATION_DATE  = 
ORIGINATOR     = 

OBJECT_NAME    = SL-14 R/B
OBJECT_ID      = 1986-006B
CENTER_NAME    = EARTH
REF_FRAME      = TEME
TIME_SYSTEM    = UTC
MEAN_ELEMENT_THEORY = SGP/SGP4

EPOCH          = 2026-03-15T05:46:49.023552
MEAN_MOTION    = 14.86823519
ECCENTRICITY   = .00750971
INCLINATION    = 82.5236
RA_OF_ASC_NODE = 254.5109
ARG_OF_PERICENTER = 254.0422
MEAN_ANOMALY   = 105.2513

EPHEMERIS_TYPE = 0
CLASSIFICATION_TYPE = U
NORAD_CAT_ID   = 16496
ELEMENT_SET_NO = 999
REV_AT_EPOCH   = 15003
BSTAR          = .78789518E-4
MEAN_MOTION_DOT = .765E-5
MEAN_MOTION_DDOT = 0

CCSDS_OMM_VERS = 2.0
CREATION_DATE  = 
ORIGINATOR     = 

OBJECT_NAME    = COSMOS 1743
OBJECT_ID      = 1986-034A
CENTER_NAME    = EARTH
REF_FRAME      = TEME
TIME_SYSTEM    = UTC
MEAN_ELEMENT_THEORY = SGP/SGP4

EPOCH          = 2026-03-15T00:49:43.073184
MEAN_MOTION    = 15.58979474
ECCENTRICITY   = .00017034
INCLINATION    = 82.5289
RA_OF_ASC_NODE = 68.2189
ARG_OF_PERICENTER = 240.9788
MEAN_ANOMALY   = 119.1297

EPHEMERIS_TYPE = 0
CLASSIFICATION_TYPE = U
NORAD_CAT_ID   = 16719
ELEMENT_SET_NO = 999
REV_AT_EPOCH   = 18108
BSTAR          = .54264643E-3
MEAN_MOTION_DOT = .42337E-3
MEAN_MOTION_DDOT = 0

